SIRION PATHFINDER-2     
1 43759U 18099B   26181.59313485  .00004121  00000+0  22624-3 0  9997
2 43759  97.4245 230.3322 0007208 247.6548 112.3921 15.14662292414656
CORVUS BC4              
1 43767U 18099K   26181.35331525  .00003739  00000+0  21774-3 0  9994
2 43767  97.4056 223.9482 0006951 324.3515  35.7251 15.12595052414393
M2 PATHFINDER           
1 45727U 20037E   26181.47988063  .00003059  00000+0  22134-3 0  9991
2 45727  97.8140  12.8603 0012730 107.3668 252.8951 15.04732911327490
NETSAT-4                
1 46504U 20068U   26181.47478391  .00016301  00000+0  35583-3 0  9993
2 46504  97.8596 190.7866 0003286 263.1937  96.8936 15.44297823317829
NETSAT-3                
1 46505U 20068V   26181.81540445  .00020954  00000+0  47457-3 0  9994
2 46505  97.8647 189.3544 0002895 290.6104  69.4832 15.43145367317780
NETSAT-1                
1 46506U 20068W   26181.95723707  .00014259  00000+0  42281-3 0  9995
2 46506  97.8741 183.6749 0003271 343.6913  16.4223 15.34952511317419
NETSAT-2                
1 46507U 20068X   26181.49597333  .00023173  00000+0  46720-3 0  9996
2 46507  97.8606 190.7536 0001521 324.3175  35.7971 15.46562129317795
GREENCUBE (IO-117)      
1 53109U 22080E   26181.72466670 -.00000003  00000+0  00000+0 0  9998
2 53109  70.1437 293.5372 0008958 286.6703  73.2973  6.42583253 92937
SITRO-AIS 5 (KATYS)     
1 57176U 23091L   26181.93871438  .00014830  00000+0  51546-3 0  9991
2 57176  97.5055 245.9709 0012088  60.4418 299.8025 15.29768657166449
SITRO-AIS 6 (CHIRKIN)   
1 57192U 23091AC  26181.94959680  .00011613  00000+0  45061-3 0  9997
2 57192  97.5063 245.0274 0012557  63.5766 296.6759 15.26195133166387
SITRO-AIS 8 (ANOKHIN)   
1 57193U 23091AD  26181.93147117  .00017705  00000+0  56493-3 0  9990
2 57193  97.5052 247.6086 0010951  56.7166 303.5123 15.32504796166557
SITRO-AIS 7 (FARTUSHNIY)
1 57194U 23091AE  26181.95558305  .00010991  00000+0  43076-3 0  9991
2 57194  97.5060 244.8513 0012476  64.7059 295.5470 15.25876794166372
SITRO-AIS 10 (BURDAEV)  
1 57199U 23091AK  26181.90460943  .00023713  00000+0  61233-3 0  9992
2 57199  97.5080 252.7786 0006304  36.5420 323.6254 15.39123042166875
SITRO-AIS 9 (SHCHUKIN)  
1 57201U 23091AM  26181.93543216  .00023437  00000+0  61511-3 0  9996
2 57201  97.5077 252.5292 0006562  36.4557 323.7134 15.38623886166868
SITRO-AIS 12 (SMIRENNIY)
1 57204U 23091AQ  26181.92343676  .00023257  00000+0  60471-3 0  9990
2 57204  97.5090 252.9928 0006050  31.1145 329.0457 15.38916116166883
SITRO-AIS 11 (SHEFFER)  
1 57208U 23091AU  26181.93302467  .00023753  00000+0  60888-3 0  9991
2 57208  97.5089 253.2579 0005946  30.5607 329.5983 15.39349885166906
SITRO-AIS 25            
1 59066U 24039R   26181.97671549  .00002942  00000+0  23137-3 0  9995
2 59066  95.3900 244.5685 0142378 279.9212  78.5968 14.93576878126780
SITRO-AIS 26            
1 59067U 24039S   26181.97997784  .00002966  00000+0  23437-3 0  9997
2 59067  95.3902 244.4655 0142699 280.5196  77.9979 14.93371267126773
SITRO-AIS 27            
1 59068U 24039T   26181.94634396  .00002269  00000+0  17836-3 0  9994
2 59068  95.3908 244.7209 0141765 279.2220  79.2994 14.93794548126799
SITRO-AIS 28            
1 59071U 24039U   26181.92348400  .00003044  00000+0  23818-3 0  9993
2 59071  95.3907 244.7528 0141578 279.1195  79.4036 14.93827019126797
GRBBETA                 
1 60237U 24128C   26181.95792862  .00003710  00000+0  25869-3 0  9994
2 60237  61.9881 167.9480 0038887 137.6190 222.7918 15.06722245108340
OOV-CUBE (TUBSAT-30)    
1 60240U 24128F   26181.56269238  .00001824  00000+0  14864-3 0  9998
2 60240  61.9924 178.9308 0042979 136.7327 223.7153 15.02821133108122
ROBUSTA-3A (MEDITERRAN*)
1 60243U 24128J   26181.95905051  .00006673  00000+0  39418-3 0  9993
2 60243  61.9848 159.5366 0039776 130.8133 229.6423 15.11809752108500
LASARSAT                
1 62391U 24247Q   26181.92613362  .00040208  00000+0  77654-3 0  9995
2 62391  44.9721 184.9646 0006648  59.4066 300.7479 15.47167026 85442
CROCUBE                 
1 62394U 24247T   26181.45534166  .00034641  00000+0  62612-3 0  9992
2 62394  44.9690 184.7243 0006588  61.2381 298.9172 15.49133067 85409
FORESAIL-1 PRIME        
1 66778U 25276DS  26181.43718838  .00004337  00000+0  21159-3 0  9993
2 66778  97.4202 254.4659 0003780  75.9591 284.2063 15.18816213 32410
KNACKSAT-2              
1 67683U 98067XZ  26181.35012679  .00038944  00000+0  45592-3 0  9996
2 67683  51.6260 228.2118 0008493 273.6004  86.4018 15.61112165 22338
