OBJECT_NAME,OBJECT_ID,EPOCH,MEAN_MOTION,ECCENTRICITY,INCLINATION,RA_OF_ASC_NODE,ARG_OF_PERICENTER,MEAN_ANOMALY,EPHEMERIS_TYPE,CLASSIFICATION_TYPE,NORAD_CAT_ID,ELEMENT_SET_NO,REV_AT_EPOCH,BSTAR,MEAN_MOTION_DOT,MEAN_MOTION_DDOT
SIRION PATHFINDER-2,2018-099B,2026-06-30T14:14:06.851040,15.14662292,.00072081,97.4245,230.3322,247.6548,112.3921,0,U,43759,999,41465,.22623833E-3,.4121E-4,0
CORVUS BC4,2018-099K,2026-06-30T08:28:46.437600,15.12595052,.00069517,97.4056,223.9482,324.3515,35.7251,0,U,43767,999,41439,.21773691E-3,.3739E-4,0
M2 PATHFINDER,2020-037E,2026-06-30T11:31:01.686432,15.04732911,.00127307,97.8140,12.8603,107.3668,252.8951,0,U,45727,999,32749,.22134261E-3,.3059E-4,0
NETSAT-4,2020-068U,2026-06-30T11:23:41.329824,15.44297823,.00032864,97.8596,190.7866,263.1937,96.8936,0,U,46504,999,31782,.35583116E-3,.16301E-3,0
NETSAT-3,2020-068V,2026-06-30T19:34:10.944480,15.43145367,.00028954,97.8647,189.3544,290.6104,69.4832,0,U,46505,999,31778,.47457251E-3,.20954E-3,0
NETSAT-1,2020-068W,2026-06-30T22:58:25.282848,15.34952511,.00032718,97.8741,183.6749,343.6913,16.4223,0,U,46506,999,31741,.42281429E-3,.14259E-3,0
NETSAT-2,2020-068X,2026-06-30T11:54:12.095712,15.46562129,.00015211,97.8606,190.7536,324.3175,35.7971,0,U,46507,999,31779,.4671994E-3,.23173E-3,0
GREENCUBE (IO-117),2022-080E,2026-06-30T17:23:31.202880,6.42583253,.00089588,70.1437,293.5372,286.6703,73.2973,0,U,53109,999,9293,0,-.3E-7,0
SITRO-AIS 5 (KATYS),2023-091L,2026-06-30T22:31:44.922432,15.29768657,.00120883,97.5055,245.9709,60.4418,299.8025,0,U,57176,999,16644,.51546231E-3,.1483E-3,0
SITRO-AIS 6 (CHIRKIN),2023-091AC,2026-06-30T22:47:25.163520,15.26195133,.00125572,97.5063,245.0274,63.5766,296.6759,0,U,57192,999,16638,.45061499E-3,.11613E-3,0
SITRO-AIS 8 (ANOKHIN),2023-091AD,2026-06-30T22:21:19.109088,15.32504796,.00109512,97.5052,247.6086,56.7166,303.5123,0,U,57193,999,16655,.56493468E-3,.17705E-3,0
SITRO-AIS 7 (FARTUSHNIY),2023-091AE,2026-06-30T22:56:02.375520,15.25876794,.0012476,97.5060,244.8513,64.7059,295.5470,0,U,57194,999,16637,.43075941E-3,.10991E-3,0
SITRO-AIS 10 (BURDAEV),2023-091AK,2026-06-30T21:42:38.254752,15.39123042,.00063046,97.5080,252.7786,36.5420,323.6254,0,U,57199,999,16687,.61232928E-3,.23713E-3,0
SITRO-AIS 9 (SHCHUKIN),2023-091AM,2026-06-30T22:27:01.338624,15.38623886,.00065628,97.5077,252.5292,36.4557,323.7134,0,U,57201,999,16686,.6151109E-3,.23437E-3,0
SITRO-AIS 12 (SMIRENNIY),2023-091AQ,2026-06-30T22:09:44.936064,15.38916116,.00060509,97.5090,252.9928,31.1145,329.0457,0,U,57204,999,16688,.6047103E-3,.23257E-3,0
SITRO-AIS 11 (SHEFFER),2023-091AU,2026-06-30T22:23:33.331488,15.39349885,.00059464,97.5089,253.2579,30.5607,329.5983,0,U,57208,999,16690,.60887784E-3,.23753E-3,0
SITRO-AIS 25,2024-039R,2026-06-30T23:26:28.218336,14.93576878,.01423782,95.3900,244.5685,279.9212,78.5968,0,U,59066,999,12678,.23136634E-3,.2942E-4,0
SITRO-AIS 26,2024-039S,2026-06-30T23:31:10.085376,14.93371267,.01426999,95.3902,244.4655,280.5196,77.9979,0,U,59067,999,12677,.23436971E-3,.2966E-4,0
SITRO-AIS 27,2024-039T,2026-06-30T22:42:44.118144,14.93794548,.01417651,95.3908,244.7209,279.2220,79.2994,0,U,59068,999,12679,.17835812E-3,.2269E-4,0
SITRO-AIS 28,2024-039U,2026-06-30T22:09:49.017600,14.93827019,.01415781,95.3907,244.7528,279.1195,79.4036,0,U,59071,999,12679,.23818486E-3,.3044E-4,0
GRBBETA,2024-128C,2026-06-30T22:59:25.032768,15.06722245,.00388872,61.9881,167.9480,137.6190,222.7918,0,U,60237,999,10834,.25868824E-3,.371E-4,0
OOV-CUBE (TUBSAT-30),2024-128F,2026-06-30T13:30:16.621632,15.02821133,.0042979,61.9924,178.9308,136.7327,223.7153,0,U,60240,999,10812,.14863728E-3,.1824E-4,0
ROBUSTA-3A (MEDITERRANEE),2024-128J,2026-06-30T23:01:01.964064,15.11809752,.00397769,61.9848,159.5366,130.8133,229.6423,0,U,60243,999,10850,.39418495E-3,.6673E-4,0
LASARSAT,2024-247Q,2026-06-30T22:13:37.944768,15.47167026,.00066481,44.9721,184.9646,59.4066,300.7479,0,U,62391,999,8544,.77653915E-3,.40208E-3,0
CROCUBE,2024-247T,2026-06-30T10:55:41.519424,15.49133067,.00065888,44.9690,184.7243,61.2381,298.9172,0,U,62394,999,8540,.62612125E-3,.34641E-3,0
FORESAIL-1 PRIME,2025-276DS,2026-06-30T10:29:33.076032,15.18816213,.00037806,97.4202,254.4659,75.9591,284.2063,0,U,66778,999,3241,.2115921E-3,.4337E-4,0
KNACKSAT-2,1998-067XZ,2026-06-30T08:24:10.954656,15.61112165,.00084933,51.6260,228.2118,273.6004,86.4018,0,U,67683,999,2233,.45592226E-3,.38944E-3,0
